{
    "links": {
        "self": "http://www.neowsapp.com/rest/v1/neo/3836132?api_key=iIulBulltgU6a56xZRHN4H3l9WmuAYTsLGpBGhQ2"
    },
    "id": "3836132",
    "neo_reference_id": "3836132",
    "name": "(2018 VM5)",
    "designation": "2018 VM5",
    "nasa_jpl_url": "http://ssd.jpl.nasa.gov/sbdb.cgi?sstr=3836132",
    "absolute_magnitude_h": 27.2,
    "estimated_diameter": {
        "kilometers": {
            "estimated_diameter_min": 0.0096506147,
            "estimated_diameter_max": 0.0215794305
        },
        "meters": {
            "estimated_diameter_min": 9.6506146958,
            "estimated_diameter_max": 21.5794304844
        },
        "miles": {
            "estimated_diameter_min": 0.0059966121,
            "estimated_diameter_max": 0.0134088323
        },
        "feet": {
            "estimated_diameter_min": 31.6621227185,
            "estimated_diameter_max": 70.7986587106
        }
    },
    "is_potentially_hazardous_asteroid": false,
    "close_approach_data": [
        {
            "close_approach_date": "2018-11-04",
            "close_approach_date_full": "2018-Nov-04 07:09",
            "epoch_date_close_approach": 1541315340000,
            "relative_velocity": {
                "kilometers_per_second": "10.4254900347",
                "kilometers_per_hour": "37531.7641247616",
                "miles_per_hour": "23320.778658522"
            },
            "miss_distance": {
                "astronomical": "0.0188163103",
                "lunar": "7.3195447067",
                "kilometers": "2814879.942139061",
                "miles": "1749085.2898826018"
            },
            "orbiting_body": "Earth"
        }
    ],
    "orbital_data": {
        "orbit_id": "1",
        "orbit_determination_date": "2018-11-09 20:28:15",
        "first_observation_date": "2018-11-07",
        "last_observation_date": "2018-11-09",
        "data_arc_in_days": 2,
        "observations_used": 21,
        "orbit_uncertainty": "8",
        "minimum_orbit_intersection": ".0188151",
        "jupiter_tisserand_invariant": "3.781",
        "epoch_osculation": "2458430.5",
        "eccentricity": ".5011215115941102",
        "semi_major_axis": "1.892696135131307",
        "inclination": "8.611627656895028",
        "ascending_node_longitude": "227.3925383448729",
        "orbital_period": "951.0859582181374",
        "perihelion_distance": ".944225386905976",
        "perihelion_argument": "139.7317141013854",
        "aphelion_distance": "2.841166883356637",
        "perihelion_time": "2458399.615319462129",
        "mean_anomaly": "11.69030506397558",
        "mean_motion": ".3785146830203036",
        "equinox": "J2000",
        "orbit_class": {
            "orbit_class_type": "APO",
            "orbit_class_description": "Near-Earth asteroid orbits which cross the Earth’s orbit similar to that of 1862 Apollo",
            "orbit_class_range": "a (semi-major axis) > 1.0 AU; q (perihelion) < 1.017 AU"
        }
    },
    "is_sentry_object": false
}